{"type": "FeatureCollection", "features": [{"type": "Feature", "properties": {"norad_id": 26766, "name": "INTELSAT 10 (IS-10)", "group": "intelsat", "lat": -7.785983398352243, "lon": -54.38773584153445, "alt_km": 36095.30751251836, "timestamp": "2025-12-04T03:47:54.221281+00:00", "meta": {"OBJECT_NAME": "INTELSAT 10 (IS-10)", "OBJECT_ID": "2001-019A", "EPOCH": "2025-12-03T11:53:38.524992", "MEAN_MOTION": 0.99078102, "ECCENTRICITY": 0.0007771, "INCLINATION": 8.6063, "RA_OF_ASC_NODE": 61.2471, "ARG_OF_PERICENTER": 218.7876, "MEAN_ANOMALY": 149.4282, "EPHEMERIS_TYPE": 0, "CLASSIFICATION_TYPE": "U", "NORAD_CAT_ID": 26766, "ELEMENT_SET_NO": 999, "REV_AT_EPOCH": 4364, "BSTAR": 0, "MEAN_MOTION_DOT": -1.56e-06, "MEAN_MOTION_DDOT": 0}, "tle": {"line1": "1 26766U 01019A   25337.49558478 -.00000156  00000+0  00000+0 0  9999", "line2": "2 26766   8.6063  61.2471 0007771 218.7876 149.4282  0.99078102 43647"}}, "geometry": {"type": "Point", "coordinates": [-54.38773584153445, -7.785983398352243]}}, {"type": "Feature", "properties": {"norad_id": 26900, "name": "INTELSAT 902 (IS-902)", "group": "intelsat", "lat": 0.6010596251091748, "lon": 80.02310585686283, "alt_km": 35804.63989103374, "timestamp": "2025-12-04T03:47:54.221304+00:00", "meta": {"OBJECT_NAME": "INTELSAT 902 (IS-902)", "OBJECT_ID": "2001-039A", "EPOCH": "2025-12-01T16:59:59.311968", "MEAN_MOTION": 1.00270327, "ECCENTRICITY": 0.00043097, "INCLINATION": 5.6187, "RA_OF_ASC_NODE": 74.2002, "ARG_OF_PERICENTER": 175.119, "MEAN_ANOMALY": 26.3816, "EPHEMERIS_TYPE": 0, "CLASSIFICATION_TYPE": "U", "NORAD_CAT_ID": 26900, "ELEMENT_SET_NO": 999, "REV_AT_EPOCH": 8871, "BSTAR": 0, "MEAN_MOTION_DOT": -2.63e-06, "MEAN_MOTION_DDOT": 0}, "tle": {"line1": "1 26900U 01039A   25335.70832537 -.00000263  00000+0  00000+0 0  9993", "line2": "2 26900   5.6187  74.2002 0004309 175.1190  26.3816  1.00270327 88713"}}, "geometry": {"type": "Point", "coordinates": [80.02310585686283, 0.6010596251091748]}}, {"type": "Feature", "properties": {"norad_id": 27380, "name": "INTELSAT 904 (IS-904)", "group": "intelsat", "lat": 2.9535404505088914, "lon": 98.54577131789826, "alt_km": 35793.111517331745, "timestamp": "2025-12-04T03:47:54.221320+00:00", "meta": {"OBJECT_NAME": "INTELSAT 904 (IS-904)", "OBJECT_ID": "2002-007A", "EPOCH": "2025-12-03T03:19:57.879840", "MEAN_MOTION": 1.00269372, "ECCENTRICITY": 0.00015814, "INCLINATION": 6.4293, "RA_OF_ASC_NODE": 71.5412, "ARG_OF_PERICENTER": 200.7188, "MEAN_ANOMALY": 178.4698, "EPHEMERIS_TYPE": 0, "CLASSIFICATION_TYPE": "U", "NORAD_CAT_ID": 27380, "ELEMENT_SET_NO": 999, "REV_AT_EPOCH": 4980, "BSTAR": 0, "MEAN_MOTION_DOT": -2.1e-06, "MEAN_MOTION_DDOT": 0}, "tle": {"line1": "1 27380U 02007A   25337.13886435 -.00000210  00000+0  00000+0 0  9999", "line2": "2 27380   6.4293  71.5412 0001581 200.7188 178.4698  1.00269372 49801"}}, "geometry": {"type": "Point", "coordinates": [98.54577131789826, 2.9535404505088914]}}, {"type": "Feature", "properties": {"norad_id": 27426, "name": "DIRECTV 5 (TEMPO 1)", "group": "intelsat", "lat": -3.677162450155809, "lon": 20.187552534166255, "alt_km": 35792.850006769826, "timestamp": "2025-12-04T03:47:54.221334+00:00", "meta": {"OBJECT_NAME": "DIRECTV 5 (TEMPO 1)", "OBJECT_ID": "2002-023A", "EPOCH": "2025-12-03T16:39:22.076064", "MEAN_MOTION": 1.00271189, "ECCENTRICITY": 0.0003787, "INCLINATION": 4.3774, "RA_OF_ASC_NODE": 77.7582, "ARG_OF_PERICENTER": 190.0543, "MEAN_ANOMALY": 304.6846, "EPHEMERIS_TYPE": 0, "CLASSIFICATION_TYPE": "U", "NORAD_CAT_ID": 27426, "ELEMENT_SET_NO": 999, "REV_AT_EPOCH": 8616, "BSTAR": 0, "MEAN_MOTION_DOT": -4.1e-07, "MEAN_MOTION_DDOT": 0}, "tle": {"line1": "1 27426U 02023A   25337.69400551 -.00000041  00000+0  00000+0 0  9992", "line2": "2 27426   4.3774  77.7582 0003787 190.0543 304.6846  1.00271189 86162"}}, "geometry": {"type": "Point", "coordinates": [20.187552534166255, -3.677162450155809]}}, {"type": "Feature", "properties": {"norad_id": 27438, "name": "INTELSAT 905 (IS-905)", "group": "intelsat", "lat": -6.140870334481877, "lon": -6.881936966010145, "alt_km": 35786.81538936572, "timestamp": "2025-12-04T03:47:54.221346+00:00", "meta": {"OBJECT_NAME": "INTELSAT 905 (IS-905)", "OBJECT_ID": "2002-027A", "EPOCH": "2025-12-03T09:40:44.148864", "MEAN_MOTION": 1.00273288, "ECCENTRICITY": 0.000313, "INCLINATION": 6.2606, "RA_OF_ASC_NODE": 72.1621, "ARG_OF_PERICENTER": 189.1417, "MEAN_ANOMALY": 179.1858, "EPHEMERIS_TYPE": 0, "CLASSIFICATION_TYPE": "U", "NORAD_CAT_ID": 27438, "ELEMENT_SET_NO": 999, "REV_AT_EPOCH": 4940, "BSTAR": 0, "MEAN_MOTION_DOT": 1.09e-06, "MEAN_MOTION_DDOT": 0}, "tle": {"line1": "1 27438U 02027A   25337.40328876  .00000109  00000+0  00000+0 0  9991", "line2": "2 27438   6.2606  72.1621 0003130 189.1417 179.1858  1.00273288 49400"}}, "geometry": {"type": "Point", "coordinates": [-6.881936966010145, -6.140870334481877]}}, {"type": "Feature", "properties": {"norad_id": 27445, "name": "GALAXY 3C (G-3C)", "group": "intelsat", "lat": -2.276924686300605, "lon": 35.37155498047865, "alt_km": 35791.21447047582, "timestamp": "2025-12-04T03:47:54.221372+00:00", "meta": {"OBJECT_NAME": "GALAXY 3C (G-3C)", "OBJECT_ID": "2002-030A", "EPOCH": "2025-12-03T13:18:15.813216", "MEAN_MOTION": 1.00270438, "ECCENTRICITY": 0.0001294, "INCLINATION": 3.2396, "RA_OF_ASC_NODE": 80.6, "ARG_OF_PERICENTER": 99.135, "MEAN_ANOMALY": 357.6153, "EPHEMERIS_TYPE": 0, "CLASSIFICATION_TYPE": "U", "NORAD_CAT_ID": 27445, "ELEMENT_SET_NO": 999, "REV_AT_EPOCH": 4453, "BSTAR": 0, "MEAN_MOTION_DOT": -1.36e-06, "MEAN_MOTION_DDOT": 0}, "tle": {"line1": "1 27445U 02030A   25337.55434969 -.00000136  00000+0  00000+0 0  9991", "line2": "2 27445   3.2396  80.6000 0001294  99.1350 357.6153  1.00270438 44535"}}, "geometry": {"type": "Point", "coordinates": [35.37155498047865, -2.276924686300605]}}, {"type": "Feature", "properties": {"norad_id": 27513, "name": "INTELSAT 906 (IS-906)", "group": "intelsat", "lat": 4.6252410678255576, "lon": -165.62247359564157, "alt_km": 35777.66895366142, "timestamp": "2025-12-04T03:47:54.221388+00:00", "meta": {"OBJECT_NAME": "INTELSAT 906 (IS-906)", "OBJECT_ID": "2002-041A", "EPOCH": "2025-12-03T20:08:41.121312", "MEAN_MOTION": 1.0027322, "ECCENTRICITY": 0.0006133, "INCLINATION": 5.3064, "RA_OF_ASC_NODE": 75.337, "ARG_OF_PERICENTER": 192.5874, "MEAN_ANOMALY": 171.3086, "EPHEMERIS_TYPE": 0, "CLASSIFICATION_TYPE": "U", "NORAD_CAT_ID": 27513, "ELEMENT_SET_NO": 999, "REV_AT_EPOCH": 8507, "BSTAR": 0, "MEAN_MOTION_DOT": 2.7e-07, "MEAN_MOTION_DDOT": 0}, "tle": {"line1": "1 27513U 02041A   25337.83936483  .00000027  00000+0  00000+0 0  9996", "line2": "2 27513   5.3064  75.3370 0006133 192.5874 171.3086  1.00273220 85075"}}, "geometry": {"type": "Point", "coordinates": [-165.62247359564157, 4.6252410678255576]}}, {"type": "Feature", "properties": {"norad_id": 27954, "name": "GALAXY 13 (HORIZONS-1)", "group": "intelsat", "lat": -0.8681993118320144, "lon": -19.788469429463884, "alt_km": 35786.20089482229, "timestamp": "2025-12-04T03:47:54.221401+00:00", "meta": {"OBJECT_NAME": "GALAXY 13 (HORIZONS-1)", "OBJECT_ID": "2003-044A", "EPOCH": "2025-12-03T16:28:01.619040", "MEAN_MOTION": 1.00272649, "ECCENTRICITY": 0.0002065, "INCLINATION": 0.9122, "RA_OF_ASC_NODE": 86.5838, "ARG_OF_PERICENTER": 161.5998, "MEAN_ANOMALY": 281.5908, "EPHEMERIS_TYPE": 0, "CLASSIFICATION_TYPE": "U", "NORAD_CAT_ID": 27954, "ELEMENT_SET_NO": 999, "REV_AT_EPOCH": 4461, "BSTAR": 0, "MEAN_MOTION_DOT": 1.5e-06, "MEAN_MOTION_DDOT": 0}, "tle": {"line1": "1 27954U 03044A   25337.68612985  .00000150  00000+0  00000+0 0  9997", "line2": "2 27954   0.9122  86.5838 0002065 161.5998 281.5908  1.00272649 44612"}}, "geometry": {"type": "Point", "coordinates": [-19.788469429463884, -0.8681993118320144]}}, {"type": "Feature", "properties": {"norad_id": 28358, "name": "INTELSAT 10-02", "group": "intelsat", "lat": 0.024144676291227102, "lon": 129.18970104738065, "alt_km": 35790.360353100994, "timestamp": "2025-12-04T03:47:54.221413+00:00", "meta": {"OBJECT_NAME": "INTELSAT 10-02", "OBJECT_ID": "2004-022A", "EPOCH": "2025-12-03T18:42:38.602944", "MEAN_MOTION": 1.00270244, "ECCENTRICITY": 0.0001081, "INCLINATION": 0.0378, "RA_OF_ASC_NODE": 79.6983, "ARG_OF_PERICENTER": 197.3997, "MEAN_ANOMALY": 75.4348, "EPHEMERIS_TYPE": 0, "CLASSIFICATION_TYPE": "U", "NORAD_CAT_ID": 28358, "ELEMENT_SET_NO": 999, "REV_AT_EPOCH": 7859, "BSTAR": 0, "MEAN_MOTION_DOT": 6e-08, "MEAN_MOTION_DDOT": 0}, "tle": {"line1": "1 28358U 04022A   25337.77961346  .00000006  00000+0  00000+0 0  9991", "line2": "2 28358   0.0378  79.6983 0001081 197.3997  75.4348  1.00270244 78593"}}, "geometry": {"type": "Point", "coordinates": [129.18970104738065, 0.024144676291227102]}}, {"type": "Feature", "properties": {"norad_id": 28626, "name": "XM-3 (RHYTHM)", "group": "intelsat", "lat": -0.07884525367096598, "lon": -74.79467522455592, "alt_km": 36157.25480358651, "timestamp": "2025-12-04T03:47:54.221426+00:00", "meta": {"OBJECT_NAME": "XM-3 (RHYTHM)", "OBJECT_ID": "2005-008A", "EPOCH": "2025-12-03T17:53:51.059040", "MEAN_MOTION": 0.98954968, "ECCENTRICITY": 9.37e-05, "INCLINATION": 0.1497, "RA_OF_ASC_NODE": 80.8491, "ARG_OF_PERICENTER": 262.3393, "MEAN_ANOMALY": 155.0849, "EPHEMERIS_TYPE": 0, "CLASSIFICATION_TYPE": "U", "NORAD_CAT_ID": 28626, "ELEMENT_SET_NO": 999, "REV_AT_EPOCH": 4066, "BSTAR": 0, "MEAN_MOTION_DOT": -2.47e-06, "MEAN_MOTION_DDOT": 0}, "tle": {"line1": "1 28626U 05008A   25337.74572985 -.00000247  00000+0  00000+0 0  9996", "line2": "2 28626   0.1497  80.8491 0000937 262.3393 155.0849  0.98954968 40660"}}, "geometry": {"type": "Point", "coordinates": [-74.79467522455592, -0.07884525367096598]}}]}